{"type": "FeatureCollection", "features": [ {"type": "Feature", "properties": {"norad_id": 66514, "name": "SENTINEL-6B", "group": "last-30-days", "lat": 0.006524489714435474, "lon": 162.9694331643663, "alt_km": 1337.447904371039, "timestamp": "2025-12-12T11:38:30.169235+00:00", "meta": {"OBJECT_NAME": "SENTINEL-6B", "OBJECT_ID": "2025-264A", "EPOCH": "2025-12-12T00:24:12.827232", "MEAN_MOTION": 12.81479561, "ECCENTRICITY": 0.0007849, "INCLINATION": 66.0385, "RA_OF_ASC_NODE": 163.9399, "ARG_OF_PERICENTER": 270.1642, "MEAN_ANOMALY": 89.8473, "EPHEMERIS_TYPE": 0, "CLASSIFICATION_TYPE": "U", "NORAD_CAT_ID": 66514, "ELEMENT_SET_NO": 999, "REV_AT_EPOCH": 319, "BSTAR": 0.00018857, "MEAN_MOTION_DOT": -1.7e-07, "MEAN_MOTION_DDOT": 0}, "tle": {"line1": "1 66514U 25264A   25346.01681513 -.00000017  00000+0  18857-3 0  9996", "line2": "2 66514  66.0385 163.9399 0007849 270.1642  89.8473 12.81479561  3198"}}, "geometry": {"type": "Point", "coordinates": [162.9694331643663, 0.006524489714435474]}}, {"type": "Feature", "properties": {"norad_id": 66516, "name": "STARLINK-35924", "group": "last-30-days", "lat": 34.7800487087176, "lon": -172.5996273321476, "alt_km": 435.5295158544559, "timestamp": "2025-12-12T11:38:30.169246+00:00", "meta": {"OBJECT_NAME": "STARLINK-35924", "OBJECT_ID": "2025-265A", "EPOCH": "2025-12-12T04:00:01.998720", "MEAN_MOTION": 15.43241969, "ECCENTRICITY": 9.94e-05, "INCLINATION": 43.0002, "RA_OF_ASC_NODE": 57.4244, "ARG_OF_PERICENTER": 266.2948, "MEAN_ANOMALY": 246.6912, "EPHEMERIS_TYPE": 0, "CLASSIFICATION_TYPE": "U", "NORAD_CAT_ID": 66516, "ELEMENT_SET_NO": 999, "REV_AT_EPOCH": 488, "BSTAR": -0.045576, "MEAN_MOTION_DOT": -0.01862687, "MEAN_MOTION_DDOT": 0}, "tle": {"line1": "1 66516U 25265A   25346.16668980 -.01862687  00000+0 -45576-1 0  9995", "line2": "2 66516  43.0002  57.4244 0000994 266.2948 246.6912 15.43241969  4884"}}, "geometry": {"type": "Point", "coordinates": [-172.5996273321476, 34.7800487087176]}}, {"type": "Feature", "properties": {"norad_id": 66517, "name": "STARLINK-35937", "group": "last-30-days", "lat": 16.45615170313668, "lon": -142.97492918663036, "alt_km": 412.89248800355654, "timestamp": "2025-12-12T11:38:30.169257+00:00", "meta": {"OBJECT_NAME": "STARLINK-35937", "OBJECT_ID": "2025-265B", "EPOCH": "2025-12-12T04:00:01.998720", "MEAN_MOTION": 15.50482962, "ECCENTRICITY": 0.0001504, "INCLINATION": 43, "RA_OF_ASC_NODE": 57.3683, "ARG_OF_PERICENTER": 268.407, "MEAN_ANOMALY": 267.6793, "EPHEMERIS_TYPE": 0, "CLASSIFICATION_TYPE": "U", "NORAD_CAT_ID": 66517, "ELEMENT_SET_NO": 999, "REV_AT_EPOCH": 490, "BSTAR": 0.0022457, "MEAN_MOTION_DOT": 0.00133214, "MEAN_MOTION_DDOT": 0}, "tle": {"line1": "1 66517U 25265B   25346.16668980  .00133214  00000+0  22457-2 0  9994", "line2": "2 66517  43.0000  57.3683 0001504 268.4070 267.6793 15.50482962  4908"}}, "geometry": {"type": "Point", "coordinates": [-142.97492918663036, 16.45615170313668]}}, {"type": "Feature", "properties": {"norad_id": 66518, "name": "STARLINK-35962", "group": "last-30-days", "lat": 15.1650272086595, "lon": -141.40962652864226, "alt_km": 413.09652272686344, "timestamp": "2025-12-12T11:38:30.169268+00:00", "meta": {"OBJECT_NAME": "STARLINK-35962", "OBJECT_ID": "2025-265C", "EPOCH": "2025-12-12T04:00:01.998720", "MEAN_MOTION": 15.50581923, "ECCENTRICITY": 0.0002201, "INCLINATION": 43, "RA_OF_ASC_NODE": 57.3627, "ARG_OF_PERICENTER": 268.0943, "MEAN_ANOMALY": 269.9005, "EPHEMERIS_TYPE": 0, "CLASSIFICATION_TYPE": "U", "NORAD_CAT_ID": 66518, "ELEMENT_SET_NO": 999, "REV_AT_EPOCH": 490, "BSTAR": 0.00093953, "MEAN_MOTION_DOT": 0.00055173, "MEAN_MOTION_DDOT": 0}, "tle": {"line1": "1 66518U 25265C   25346.16668980  .00055173  00000+0  93953-3 0  9992", "line2": "2 66518  43.0000  57.3627 0002201 268.0943 269.9005 15.50581923  4905"}}, "geometry": {"type": "Point", "coordinates": [-141.40962652864226, 15.1650272086595]}}, {"type": "Feature", "properties": {"norad_id": 66519, "name": "STARLINK-35931", "group": "last-30-days", "lat": 13.867608356927024, "lon": -139.86727913380415, "alt_km": 413.4308761484117, "timestamp": "2025-12-12T11:38:30.169278+00:00", "meta": {"OBJECT_NAME": "STARLINK-35931", "OBJECT_ID": "2025-265D", "EPOCH": "2025-12-12T04:00:01.998720", "MEAN_MOTION": 15.50821856, "ECCENTRICITY": 0.0001538, "INCLINATION": 43.0004, "RA_OF_ASC_NODE": 57.3583, "ARG_OF_PERICENTER": 268.8605, "MEAN_ANOMALY": 271.0297, "EPHEMERIS_TYPE": 0, "CLASSIFICATION_TYPE": "U", "NORAD_CAT_ID": 66519, "ELEMENT_SET_NO": 999, "REV_AT_EPOCH": 490, "BSTAR": -0.008212, "MEAN_MOTION_DOT": -0.00458885, "MEAN_MOTION_DDOT": 0}, "tle": {"line1": "1 66519U 25265D   25346.16668980 -.00458885  00000+0 -82120-2 0  9995", "line2": "2 66519  43.0004  57.3583 0001538 268.8605 271.0297 15.50821856  4905"}}, "geometry": {"type": "Point", "coordinates": [-139.86727913380415, 13.867608356927024]}}, {"type": "Feature", "properties": {"norad_id": 66520, "name": "STARLINK-35952", "group": "last-30-days", "lat": 15.66917740235134, "lon": -142.0180506162742, "alt_km": 422.8803847081799, "timestamp": "2025-12-12T11:38:30.169288+00:00", "meta": {"OBJECT_NAME": "STARLINK-35952", "OBJECT_ID": "2025-265E", "EPOCH": "2025-12-12T04:00:01.998720", "MEAN_MOTION": 15.48630189, "ECCENTRICITY": 0.0001297, "INCLINATION": 43.0002, "RA_OF_ASC_NODE": 57.356, "ARG_OF_PERICENTER": 264.6299, "MEAN_ANOMALY": 275.6793, "EPHEMERIS_TYPE": 0, "CLASSIFICATION_TYPE": "U", "NORAD_CAT_ID": 66520, "ELEMENT_SET_NO": 999, "REV_AT_EPOCH": 490, "BSTAR": -0.0422, "MEAN_MOTION_DOT": -0.02056012, "MEAN_MOTION_DDOT": 0}, "tle": {"line1": "1 66520U 25265E   25346.16668980 -.02056012  00000+0 -42200-1 0  9999", "line2": "2 66520  43.0002  57.3560 0001297 264.6299 275.6793 15.48630189  4900"}}, "geometry": {"type": "Point", "coordinates": [-142.0180506162742, 15.66917740235134]}}, {"type": "Feature", "properties": {"norad_id": 66521, "name": "STARLINK-35915", "group": "last-30-days", "lat": 11.424589798201053, "lon": -137.03934844946698, "alt_km": 413.44548226909774, "timestamp": "2025-12-12T11:38:30.169298+00:00", "meta": {"OBJECT_NAME": "STARLINK-35915", "OBJECT_ID": "2025-265F", "EPOCH": "2025-12-12T04:00:01.998720", "MEAN_MOTION": 15.5048688, "ECCENTRICITY": 0.0001824, "INCLINATION": 43.0002, "RA_OF_ASC_NODE": 57.3479, "ARG_OF_PERICENTER": 260.0592, "MEAN_ANOMALY": 283.6903, "EPHEMERIS_TYPE": 0, "CLASSIFICATION_TYPE": "U", "NORAD_CAT_ID": 66521, "ELEMENT_SET_NO": 999, "REV_AT_EPOCH": 490, "BSTAR": 0.0019891, "MEAN_MOTION_DOT": 0.00117733, "MEAN_MOTION_DDOT": 0}, "tle": {"line1": "1 66521U 25265F   25346.16668980  .00117733  00000+0  19891-2 0  9995", "line2": "2 66521  43.0002  57.3479 0001824 260.0592 283.6903 15.50486880  4904"}}, "geometry": {"type": "Point", "coordinates": [-137.03934844946698, 11.424589798201053]}}, {"type": "Feature", "properties": {"norad_id": 66522, "name": "STARLINK-35946", "group": "last-30-days", "lat": 10.19927606265176, "lon": -135.65119181004113, "alt_km": 413.5950113248937, "timestamp": "2025-12-12T11:38:30.169312+00:00", "meta": {"OBJECT_NAME": "STARLINK-35946", "OBJECT_ID": "2025-265G", "EPOCH": "2025-12-12T04:00:01.998720", "MEAN_MOTION": 15.50519792, "ECCENTRICITY": 0.0002018, "INCLINATION": 43, "RA_OF_ASC_NODE": 57.3437, "ARG_OF_PERICENTER": 264.0185, "MEAN_ANOMALY": 281.5292, "EPHEMERIS_TYPE": 0, "CLASSIFICATION_TYPE": "U", "NORAD_CAT_ID": 66522, "ELEMENT_SET_NO": 999, "REV_AT_EPOCH": 490, "BSTAR": 0.0020501, "MEAN_MOTION_DOT": 0.00121558, "MEAN_MOTION_DDOT": 0}, "tle": {"line1": "1 66522U 25265G   25346.16668980  .00121558  00000+0  20501-2 0  9996", "line2": "2 66522  43.0000  57.3437 0002018 264.0185 281.5292 15.50519792  4902"}}, "geometry": {"type": "Point", "coordinates": [-135.65119181004113, 10.19927606265176]}}, {"type": "Feature", "properties": {"norad_id": 66523, "name": "STARLINK-35969", "group": "last-30-days", "lat": 8.865903943200529, "lon": -134.16012346672696, "alt_km": 415.138298148996, "timestamp": "2025-12-12T11:38:30.169322+00:00", "meta": {"OBJECT_NAME": "STARLINK-35969", "OBJECT_ID": "2025-265H", "EPOCH": "2025-12-12T04:00:01.998720", "MEAN_MOTION": 15.50478911, "ECCENTRICITY": 0.0004462, "INCLINATION": 43.0003, "RA_OF_ASC_NODE": 57.3387, "ARG_OF_PERICENTER": 285.0358, "MEAN_ANOMALY": 262.5629, "EPHEMERIS_TYPE": 0, "CLASSIFICATION_TYPE": "U", "NORAD_CAT_ID": 66523, "ELEMENT_SET_NO": 999, "REV_AT_EPOCH": 490, "BSTAR": 0.0022902, "MEAN_MOTION_DOT": 0.00135922, "MEAN_MOTION_DDOT": 0}, "tle": {"line1": "1 66523U 25265H   25346.16668980  .00135922  00000+0  22902-2 0  9994", "line2": "2 66523  43.0003  57.3387 0004462 285.0358 262.5629 15.50478911  4900"}}, "geometry": {"type": "Point", "coordinates": [-134.16012346672696, 8.865903943200529]}}, {"type": "Feature", "properties": {"norad_id": 66524, "name": "STARLINK-35687", "group": "last-30-days", "lat": 22.180415671593092, "lon": -150.41833156636585, "alt_km": 434.2746902990639, "timestamp": "2025-12-12T11:38:30.169333+00:00", "meta": {"OBJECT_NAME": "STARLINK-35687", "OBJECT_ID": "2025-265J", "EPOCH": "2025-12-12T04:00:01.998720", "MEAN_MOTION": 15.44492023, "ECCENTRICITY": 0.0001157, "INCLINATION": 43.0004, "RA_OF_ASC_NODE": 57.37, "ARG_OF_PERICENTER": 277.6175, "MEAN_ANOMALY": 257.1514, "EPHEMERIS_TYPE": 0, "CLASSIFICATION_TYPE": "U", "NORAD_CAT_ID": 66524, "ELEMENT_SET_NO": 999, "REV_AT_EPOCH": 490, "BSTAR": -0.047931, "MEAN_MOTION_DOT": -0.02024806, "MEAN_MOTION_DDOT": 0}, "tle": {"line1": "1 66524U 25265J   25346.16668980 -.02024806  00000+0 -47931-1 0  9995", "line2": "2 66524  43.0004  57.3700 0001157 277.6175 257.1514 15.44492023  4909"}}, "geometry": {"type": "Point", "coordinates": [-150.41833156636585, 22.180415671593092]}}]}